start=new Date('2021-12-03T00:00:00.000Z').valueOf();
sats=[{"APOAPSIS":"548.743","EPHEMERIS_TYPE":"0","FILE":"3230996","CENTER_NAME":"EARTH","TIME_SYSTEM":"UTC","MEAN_MOTION_DDOT":"0.0000000000000","INCLINATION":"53.0536","PERIAPSIS":"545.668","ARG_OF_PERICENTER":"66.4902","ELEMENT_SET_NO":"999","RCS_SIZE":"LARGE","TLE_LINE2":"2 48303  53.0536 245.4186 0002220  66.4902 293.6320 15.06402714 33949","LAUNCH_DATE":"2021-04-29","MEAN_ELEMENT_THEORY":"SGP4","OBJECT_ID":"2021-036AD","REF_FRAME":"TEME","NORAD_CAT_ID":"48303","OBJECT_NAME":"STARLINK-2530","MEAN_MOTION":"15.06402714","RA_OF_ASC_NODE":"245.4186","ECCENTRICITY":"0.00022200","CLASSIFICATION_TYPE":"U","DECAY_DATE":null,"PERIOD":"95.592","COUNTRY_CODE":"US","MEAN_ANOMALY":"293.6320","TLE_LINE1":"1 48303U 21036AD  21336.76115083  .00002693  00000-0  19964-3 0  9998","GP_ID":"190949601","BSTAR":"0.00019964000000","OBJECT_TYPE":"PAYLOAD","MEAN_MOTION_DOT":"0.00002693","SEMIMAJOR_AXIS":"6925.340","EPOCH":"2021-12-02T18:16:03.431712","REV_AT_EPOCH":"3394","SITE":"AFETR"},{"BSTAR":"-0.00015109000000","TLE_LINE1":"1 48304U 21036AE  21336.75745279 -.00002533  00000-0 -15109-3 0  9996","GP_ID":"190949543","EPOCH":"2021-12-02T18:10:43.921056","SEMIMAJOR_AXIS":"6925.288","MEAN_MOTION_DOT":"-0.00002533","REV_AT_EPOCH":"3394","SITE":"AFETR","OBJECT_TYPE":"PAYLOAD","ECCENTRICITY":"0.00023940","CLASSIFICATION_TYPE":"U","MEAN_ANOMALY":"302.9101","DECAY_DATE":null,"PERIOD":"95.591","COUNTRY_CODE":"US","MEAN_ELEMENT_THEORY":"SGP4","LAUNCH_DATE":"2021-04-29","PERIAPSIS":"545.495","ELEMENT_SET_NO":"999","ARG_OF_PERICENTER":"57.2119","RCS_SIZE":"LARGE","TLE_LINE2":"2 48304  53.0553 245.4453 0002394  57.2119 302.9101 15.06419626 33947","REF_FRAME":"TEME","NORAD_CAT_ID":"48304","OBJECT_NAME":"STARLINK-2524","RA_OF_ASC_NODE":"245.4453","MEAN_MOTION":"15.06419626","OBJECT_ID":"2021-036AE","APOAPSIS":"548.811","EPHEMERIS_TYPE":"0","TIME_SYSTEM":"UTC","MEAN_MOTION_DDOT":"0.0000000000000","INCLINATION":"53.0553","FILE":"3230992","CENTER_NAME":"EARTH"},{"EPHEMERIS_TYPE":"0","APOAPSIS":"548.510","CENTER_NAME":"EARTH","FILE":"3230859","INCLINATION":"53.0549","MEAN_MOTION_DDOT":"0.0000000000000","TIME_SYSTEM":"UTC","TLE_LINE2":"2 48305  53.0549 246.6465 0001888  67.9737 292.1452 15.06403669 33310","RCS_SIZE":"LARGE","ARG_OF_PERICENTER":"67.9737","ELEMENT_SET_NO":"999","PERIAPSIS":"545.895","LAUNCH_DATE":"2021-04-29","MEAN_ELEMENT_THEORY":"SGP4","OBJECT_ID":"2021-036AF","MEAN_MOTION":"15.06403669","RA_OF_ASC_NODE":"246.6465","OBJECT_NAME":"STARLINK-2519","NORAD_CAT_ID":"48305","REF_FRAME":"TEME","CLASSIFICATION_TYPE":"U","ECCENTRICITY":"0.00018880","COUNTRY_CODE":"US","PERIOD":"95.592","DECAY_DATE":null,"MEAN_ANOMALY":"292.1452","GP_ID":"190944064","TLE_LINE1":"1 48305U 21036AF  21336.48838014  .00002270  00000-0  17123-3 0  9991","BSTAR":"0.00017123000000","OBJECT_TYPE":"PAYLOAD","REV_AT_EPOCH":"3331","SITE":"AFETR","SEMIMAJOR_AXIS":"6925.337","MEAN_MOTION_DOT":"0.00002270","EPOCH":"2021-12-02T11:43:16.044096"},{"OBJECT_TYPE":"PAYLOAD","REV_AT_EPOCH":"3331","SITE":"AFETR","SEMIMAJOR_AXIS":"6925.335","MEAN_MOTION_DOT":"0.00000956","EPOCH":"2021-12-02T11:37:58.016064","GP_ID":"190944816","TLE_LINE1":"1 48306U 21036AG  21336.48469926  .00000956  00000-0  83096-4 0  9996","BSTAR":"0.00008309600000","COUNTRY_CODE":"US","PERIOD":"95.592","DECAY_DATE":null,"MEAN_ANOMALY":"291.4672","ECCENTRICITY":"0.00021090","CLASSIFICATION_TYPE":"U","OBJECT_ID":"2021-036AG","MEAN_MOTION":"15.06404520","RA_OF_ASC_NODE":"246.6773","NORAD_CAT_ID":"48306","OBJECT_NAME":"STARLINK-2523","REF_FRAME":"TEME","TLE_LINE2":"2 48306  53.0561 246.6773 0002109  68.6542 291.4672 15.06404520 33319","RCS_SIZE":"LARGE","ELEMENT_SET_NO":"999","ARG_OF_PERICENTER":"68.6542","PERIAPSIS":"545.739","LAUNCH_DATE":"2021-04-29","MEAN_ELEMENT_THEORY":"SGP4","CENTER_NAME":"EARTH","FILE":"3230859","INCLINATION":"53.0561","MEAN_MOTION_DDOT":"0.0000000000000","TIME_SYSTEM":"UTC","EPHEMERIS_TYPE":"0","APOAPSIS":"548.660"},{"MEAN_MOTION":"15.06405820","RA_OF_ASC_NODE":"246.6820","REF_FRAME":"TEME","OBJECT_NAME":"STARLINK-2528","NORAD_CAT_ID":"48307","OBJECT_ID":"2021-036AH","MEAN_ELEMENT_THEORY":"SGP4","LAUNCH_DATE":"2021-04-29","RCS_SIZE":"LARGE","TLE_LINE2":"2 48307  53.0556 246.6820 0002047  69.7040 290.4168 15.06405820 33316","PERIAPSIS":"545.778","ELEMENT_SET_NO":"999","ARG_OF_PERICENTER":"69.7040","MEAN_MOTION_DDOT":"0.0000000000000","INCLINATION":"53.0556","TIME_SYSTEM":"UTC","CENTER_NAME":"EARTH","FILE":"3230859","EPHEMERIS_TYPE":"0","APOAPSIS":"548.613","MEAN_MOTION_DOT":"0.00000766","SEMIMAJOR_AXIS":"6925.331","EPOCH":"2021-12-02T11:32:39.482592","SITE":"AFETR","REV_AT_EPOCH":"3331","OBJECT_TYPE":"PAYLOAD","BSTAR":"0.00007029900000","TLE_LINE1":"1 48307U 21036AH  21336.48101253  .00000766  00000-0  70299-4 0  9993","GP_ID":"190945567","MEAN_ANOMALY":"290.4168","PERIOD":"95.592","COUNTRY_CODE":"US","DECAY_DATE":null,"CLASSIFICATION_TYPE":"U","ECCENTRICITY":"0.00020470"},{"MEAN_ANOMALY":"294.0671","DECAY_DATE":null,"COUNTRY_CODE":"US","PERIOD":"95.592","CLASSIFICATION_TYPE":"U","ECCENTRICITY":"0.00021940","SITE":"AFETR","REV_AT_EPOCH":"3331","SEMIMAJOR_AXIS":"6925.330","MEAN_MOTION_DOT":"0.00002394","EPOCH":"2021-12-02T11:27:21.179808","OBJECT_TYPE":"PAYLOAD","BSTAR":"0.00017957000000","GP_ID":"190944315","TLE_LINE1":"1 48308U 21036AJ  21336.47732847  .00002394  00000-0  17957-3 0  9992","TIME_SYSTEM":"UTC","INCLINATION":"53.0552","MEAN_MOTION_DDOT":"0.0000000000000","FILE":"3230859","CENTER_NAME":"EARTH","APOAPSIS":"548.714","EPHEMERIS_TYPE":"0","NORAD_CAT_ID":"48308","OBJECT_NAME":"STARLINK-2532","REF_FRAME":"TEME","MEAN_MOTION":"15.06406126","RA_OF_ASC_NODE":"246.7067","OBJECT_ID":"2021-036AJ","LAUNCH_DATE":"2021-04-29","MEAN_ELEMENT_THEORY":"SGP4","ARG_OF_PERICENTER":"66.0548","ELEMENT_SET_NO":"999","PERIAPSIS":"545.675","TLE_LINE2":"2 48308  53.0552 246.7067 0002194  66.0548 294.0671 15.06406126 33312","RCS_SIZE":"LARGE"},{"BSTAR":"0.00011500000000","TLE_LINE1":"1 48309U 21036AK  21336.47363949  .00001432  00000-0  11500-3 0  9996","GP_ID":"190944565","SEMIMAJOR_AXIS":"6925.327","EPOCH":"2021-12-02T11:22:02.451936","MEAN_MOTION_DOT":"0.00001432","SITE":"AFETR","REV_AT_EPOCH":"3331","OBJECT_TYPE":"PAYLOAD","ECCENTRICITY":"0.00025040","CLASSIFICATION_TYPE":"U","MEAN_ANOMALY":"292.0512","DECAY_DATE":null,"PERIOD":"95.592","COUNTRY_CODE":"US","MEAN_ELEMENT_THEORY":"SGP4","LAUNCH_DATE":"2021-04-29","PERIAPSIS":"545.458","ELEMENT_SET_NO":"999","ARG_OF_PERICENTER":"68.0743","RCS_SIZE":"MEDIUM","TLE_LINE2":"2 48309  53.0547 246.7321 0002504  68.0743 292.0512 15.06406992 33317","REF_FRAME":"TEME","OBJECT_NAME":"STARLINK-2517","NORAD_CAT_ID":"48309","RA_OF_ASC_NODE":"246.7321","MEAN_MOTION":"15.06406992","OBJECT_ID":"2021-036AK","APOAPSIS":"548.926","EPHEMERIS_TYPE":"0","TIME_SYSTEM":"UTC","MEAN_MOTION_DDOT":"0.0000000000000","INCLINATION":"53.0547","FILE":"3230859","CENTER_NAME":"EARTH"},{"BSTAR":"0.00023301000000","TLE_LINE1":"1 48310U 21036AL  21336.46995587  .00003191  00000-0  23301-3 0  9992","GP_ID":"190945317","SEMIMAJOR_AXIS":"6925.339","MEAN_MOTION_DOT":"0.00003191","EPOCH":"2021-12-02T11:16:44.187168","REV_AT_EPOCH":"3331","SITE":"AFETR","OBJECT_TYPE":"PAYLOAD","ECCENTRICITY":"0.00023170","CLASSIFICATION_TYPE":"U","MEAN_ANOMALY":"294.5457","DECAY_DATE":null,"PERIOD":"95.592","COUNTRY_CODE":"US","LAUNCH_DATE":"2021-04-29","MEAN_ELEMENT_THEORY":"SGP4","PERIAPSIS":"545.600","ELEMENT_SET_NO":"999","ARG_OF_PERICENTER":"65.5774","RCS_SIZE":"LARGE","TLE_LINE2":"2 48310  53.0550 246.7290 0002317  65.5774 294.5457 15.06402997 33312","REF_FRAME":"TEME","NORAD_CAT_ID":"48310","OBJECT_NAME":"STARLINK-2536","MEAN_MOTION":"15.06402997","RA_OF_ASC_NODE":"246.7290","OBJECT_ID":"2021-036AL","APOAPSIS":"548.809","EPHEMERIS_TYPE":"0","TIME_SYSTEM":"UTC","INCLINATION":"53.0550","MEAN_MOTION_DDOT":"0.0000000000000","FILE":"3230859","CENTER_NAME":"EARTH"},{"MEAN_ANOMALY":"299.6099","DECAY_DATE":null,"PERIOD":"95.592","COUNTRY_CODE":"US","ECCENTRICITY":"0.00024520","CLASSIFICATION_TYPE":"U","SEMIMAJOR_AXIS":"6925.338","EPOCH":"2021-12-02T11:11:25.665792","MEAN_MOTION_DOT":"0.00001040","SITE":"AFETR","REV_AT_EPOCH":"3331","OBJECT_TYPE":"PAYLOAD","BSTAR":"0.00008872100000","TLE_LINE1":"1 48311U 21036AM  21336.46626928  .00001040  00000-0  88721-4 0  9992","GP_ID":"190945067","TIME_SYSTEM":"UTC","MEAN_MOTION_DDOT":"0.0000000000000","INCLINATION":"53.0559","FILE":"3230859","CENTER_NAME":"EARTH","APOAPSIS":"548.901","EPHEMERIS_TYPE":"0","REF_FRAME":"TEME","NORAD_CAT_ID":"48311","OBJECT_NAME":"STARLINK-2534","MEAN_MOTION":"15.06403369","RA_OF_ASC_NODE":"246.7602","OBJECT_ID":"2021-036AM","MEAN_ELEMENT_THEORY":"SGP4","LAUNCH_DATE":"2021-04-29","PERIAPSIS":"545.505","ARG_OF_PERICENTER":"60.5135","ELEMENT_SET_NO":"999","RCS_SIZE":"LARGE","TLE_LINE2":"2 48311  53.0559 246.7602 0002452  60.5135 299.6099 15.06403369 33317"},{"ELEMENT_SET_NO":"999","ARG_OF_PERICENTER":"63.9338","PERIAPSIS":"545.727","TLE_LINE2":"2 48312  53.0538 246.7779 0002148  63.9338 296.1872 15.06399654 33316","RCS_SIZE":"LARGE","LAUNCH_DATE":"2021-04-29","MEAN_ELEMENT_THEORY":"SGP4","OBJECT_ID":"2021-036AN","OBJECT_NAME":"STARLINK-2061","NORAD_CAT_ID":"48312","REF_FRAME":"TEME","MEAN_MOTION":"15.06399654","RA_OF_ASC_NODE":"246.7779","APOAPSIS":"548.702","EPHEMERIS_TYPE":"0","FILE":"3230859","CENTER_NAME":"EARTH","TIME_SYSTEM":"UTC","MEAN_MOTION_DDOT":"0.0000000000000","INCLINATION":"53.0538","GP_ID":"190943815","TLE_LINE1":"1 48312U 21036AN  21336.46258885  .00001807  00000-0  14019-3 0  9995","BSTAR":"0.00014019000000","OBJECT_TYPE":"PAYLOAD","REV_AT_EPOCH":"3331","SITE":"AFETR","SEMIMAJOR_AXIS":"6925.350","MEAN_MOTION_DOT":"0.00001807","EPOCH":"2021-12-02T11:06:07.676640","ECCENTRICITY":"0.00021480","CLASSIFICATION_TYPE":"U","DECAY_DATE":null,"COUNTRY_CODE":"US","PERIOD":"95.592","MEAN_ANOMALY":"296.1872"}];
